[{"col1":"1 13601U 23001EAE 25168.59333333  .00030938  00000+0  12818-2 0  9996"},{"col1":"2 13601 045.0000 000.0000 0000001 000.0000 150.0000 01.27101000000000"},{"col1":"2478.00000"},{"col1":"9500.00000"},{"col1":"0"}]
